{
    "links": {
        "self": "http://www.neowsapp.com/rest/v1/neo/54091633?api_key=iIulBulltgU6a56xZRHN4H3l9WmuAYTsLGpBGhQ2"
    },
    "id": "54091633",
    "neo_reference_id": "54091633",
    "name": "(2020 WP1)",
    "designation": "2020 WP1",
    "nasa_jpl_url": "http://ssd.jpl.nasa.gov/sbdb.cgi?sstr=54091633",
    "absolute_magnitude_h": 20.151,
    "estimated_diameter": {
        "kilometers": {
            "estimated_diameter_min": 0.2479447841,
            "estimated_diameter_max": 0.5544213918
        },
        "meters": {
            "estimated_diameter_min": 247.9447840635,
            "estimated_diameter_max": 554.4213918325
        },
        "miles": {
            "estimated_diameter_min": 0.1540656984,
            "estimated_diameter_max": 0.3445013747
        },
        "feet": {
            "estimated_diameter_min": 813.4671653469,
            "estimated_diameter_max": 1818.9678791798
        }
    },
    "is_potentially_hazardous_asteroid": true,
    "close_approach_data": [
        {
            "close_approach_date": "2020-11-26",
            "close_approach_date_full": "2020-Nov-26 12:08",
            "epoch_date_close_approach": 1606392480000,
            "relative_velocity": {
                "kilometers_per_second": "23.7665754783",
                "kilometers_per_hour": "85559.6717218613",
                "miles_per_hour": "53163.4526873976"
            },
            "miss_distance": {
                "astronomical": "0.0564467215",
                "lunar": "21.9577746635",
                "kilometers": "8444309.304883205",
                "miles": "5247050.493090029"
            },
            "orbiting_body": "Earth"
        }
    ],
    "orbital_data": {
        "orbit_id": "7",
        "orbit_determination_date": "2020-12-01 05:19:26",
        "first_observation_date": "2020-11-10",
        "last_observation_date": "2020-11-26",
        "data_arc_in_days": 16,
        "observations_used": 132,
        "orbit_uncertainty": "8",
        "minimum_orbit_intersection": ".00883027",
        "jupiter_tisserand_invariant": "3.746",
        "epoch_osculation": "2459173.5",
        "eccentricity": ".475923668536269",
        "semi_major_axis": "1.766331232173469",
        "inclination": "38.64008293139726",
        "ascending_node_longitude": "247.4611093027828",
        "orbital_period": "857.4457441954123",
        "perihelion_distance": ".9256923923072832",
        "perihelion_argument": "213.1913806591703",
        "aphelion_distance": "2.606970072039654",
        "perihelion_time": "2459205.414592219093",
        "mean_anomaly": "346.6006061880283",
        "mean_motion": ".419851637770746",
        "equinox": "J2000",
        "orbit_class": {
            "orbit_class_type": "APO",
            "orbit_class_description": "Near-Earth asteroid orbits which cross the Earth’s orbit similar to that of 1862 Apollo",
            "orbit_class_range": "a (semi-major axis) > 1.0 AU; q (perihelion) < 1.017 AU"
        }
    },
    "is_sentry_object": false
}